ORBCOMM FM37            
1 33064U 08031E   25277.85327182  .00002981  00000+0  41557-3 0  9991
2 33064  48.4383 182.1382 0004980 128.8443 267.1352 14.80194126930299
ORBCOMM FM40            
1 33065U 08031F   25277.80538366  .00004006  00000+0  51899-3 0  9995
2 33065  48.4403 164.5286 0006227 143.9939 296.7866 14.82571378930427
VESSELSAT 1             
1 37840U 11058C   25277.82663184  .00000450  00000+0  10082-3 0  9990
2 37840  19.9609 150.4471 0013558 312.7596  47.1668 14.11376636721814
ORBCOMM FM109           
1 40086U 14040A   25277.87871138  .00001606  00000+0  37979-3 0  9993
2 40086  47.0018 218.1784 0000832 139.3729 220.7218 14.58361311597071
ORBCOMM FM107           
1 40087U 14040B   25277.83312134  .00001492  00000+0  35481-3 0  9995
2 40087  47.0044 219.3128 0000856  14.3549 345.7361 14.58438289597148
ORBCOMM FM106           
1 40088U 14040C   25277.69234646  .00002554  00000+0  45436-3 0  9992
2 40088  47.0602  33.2819 0017443 217.5776 142.3897 14.69743968599588
ORBCOMM FM111           
1 40089U 14040D   25277.83544889  .00006284  00000+0  71113-3 0  9997
2 40089  46.9998 227.8291 0029910 356.9038   3.1669 14.87023340606542
ORBCOMM FM104           
1 40090U 14040E   25277.66816066  .00001559  00000+0  38181-3 0  9997
2 40090  47.0035 255.0252 0016809 342.3041  17.7257 14.56826536596584
